{
  "norad_id": 66383,
  "name": "STARLINK-35690",
  "history": [
    {
      "epoch": "2026-03-28T19:26:13.858368",
      "apogee_km": 476.0129796387846,
      "perigee_km": 474.32720316044197,
      "latitude_deg": -46.18085168327557,
      "longitude_deg": 176.0487315200735,
      "semi_major_axis_km": 6853.3070913996135,
      "eccentricity": 0.00012299,
      "inclination_deg": 53.158,
      "raan_deg": 128.02,
      "arg_perigee_deg": 87.688,
      "mean_anomaly_deg": 272.4261,
      "mean_motion_rev_day": 15.30215064
    },
    {
      "epoch": "2026-03-29T01:42:26.255808",
      "apogee_km": 476.00895761572156,
      "perigee_km": 474.27644850678735,
      "latitude_deg": 46.1219046031183,
      "longitude_deg": -158.87082687974907,
      "semi_major_axis_km": 6853.279703061254,
      "eccentricity": 0.0001264,
      "inclination_deg": 53.1576,
      "raan_deg": 126.8064,
      "arg_perigee_deg": 91.8433,
      "mean_anomaly_deg": 268.2712,
      "mean_motion_rev_day": 15.30224237
    }
  ]
}